     2.10           NAVIGATION DATA                         RINEX VERSION / TYPE
SPIDER V4,0,0,3554                      2015 03 12 00:01    PGM / RUN BY / DATE 
   1.6764D-08  0.0000D+00 -1.1921D-07  5.9605D-08           ION ALPHA           
   1.2288D+05 -3.2768D+04 -1.9661D+05 -6.5536D+04           ION BETA            
   -9.313225746155D-10-8.881784197001D-15    61440     1834 DELTA-UTC: A0,A1,T,W
    16                                                      LEAP SECONDS        
                                                            END OF HEADER       
21 15 02 26 02 00  0.0-4.205992445350D-04-3.979039320257D-12 0.000000000000D+00
    5.900000000000D+01-1.100000000000D+01 5.047353202059D-09-2.279845780179D+00
   -6.966292858124D-07 2.228264207952D-02 6.927177309990D-06 5.153606636047D+03
    3.528000000000D+05 2.533197402954D-07-3.192358356939D-01-3.911554813385D-08
    9.338231194698D-01 2.253750000000D+02-1.942321938282D+00-7.987475569848D-09
    2.971552448550D-10 1.000000000000D+00 1.833000000000D+03 0.000000000000D+00
    4.000000000000D+00 0.000000000000D+00-1.164153218269D-08 5.900000000000D+01
    3.528000000000D+05 0.000000000000D+00
16 15 02 26 02 00  0.0-1.530647277832D-04 3.410605131648D-12 0.000000000000D+00
    1.310000000000D+02-4.109375000000D+01 4.036953882292D-09 2.411139352581D+00
   -2.104789018631D-06 8.124750107527D-03 6.400048732758D-06 5.153755607605D+03
    3.528000000000D+05-2.458691596985D-07-2.336650543949D+00 3.911554813385D-08
    9.899059053715D-01 2.736875000000D+02 2.432335710145D-01-7.864970896776D-09
   -8.750364322019D-11 1.000000000000D+00 1.833000000000D+03 0.000000000000D+00
    2.800000000000D+00 0.000000000000D+00-1.024454832077D-08 1.310000000000D+02
    3.528000000000D+05 0.000000000000D+00
18 15 02 26 02 00  0.0 3.822725266218D-04 2.842170943040D-12 0.000000000000D+00
    9.500000000000D+01-1.293750000000D+01 5.209502607073D-09 2.977575094469D+00
   -7.282942533493D-07 1.577288843691D-02 7.949769496918D-06 5.153760953903D+03
    3.528000000000D+05 8.568167686462D-08 7.241419476473D-01-1.639127731323D-07
    9.253610497792D-01 2.049062500000D+02-1.988588937397D+00-8.109623195196D-09
   -1.214336270428D-10 1.000000000000D+00 1.833000000000D+03 0.000000000000D+00
    2.000000000000D+00 0.000000000000D+00-1.117587089539D-08 9.500000000000D+01
    3.528000000000D+05 0.000000000000D+00
22 15 02 26 02 00  0.0 3.223828971386D-04 4.092726157978D-12 0.000000000000D+00
    7.600000000000D+01-7.750000000000D+00 5.368795186200D-09 2.507845805295D+00
   -4.302710294724D-07 7.535228040069D-03 7.936730980873D-06 5.153698629379D+03
    3.528000000000D+05 3.539025783539D-08 7.254853540970D-01-9.872019290924D-08
    9.231639999089D-01 2.062187500000D+02-2.067700252632D+00-8.319989142080D-09
   -1.150047904130D-10 1.000000000000D+00 1.833000000000D+03 0.000000000000D+00
    2.800000000000D+00 0.000000000000D+00-1.769512891769D-08 7.600000000000D+01
    3.528000000000D+05 0.000000000000D+00
27 15 02 26 02 00  0.0 5.403626710176D-05 2.614797267597D-12 0.000000000000D+00
    4.300000000000D+01-4.534375000000D+01 4.405540821040D-09 1.578320113014D+00
   -2.203509211540D-06 2.056331606582D-03 8.719041943550D-06 5.153692054749D+03
    3.528000000000D+05 7.450580596924D-09-1.355715857887D+00 4.284083843231D-08
    9.661211263885D-01 2.125937500000D+02 1.361211684159D-01-8.029977571766D-09
    6.393123530568D-11 1.000000000000D+00 1.833000000000D+03 0.000000000000D+00
    2.000000000000D+00 0.000000000000D+00 1.862645149231D-09 4.300000000000D+01
    3.528000000000D+05 0.000000000000D+00
29 15 02 26 02 00  0.0 5.943845026195D-04 2.273736754432D-12 0.000000000000D+00
    6.100000000000D+01-4.128125000000D+01 4.170888079358D-09-1.952412010506D+00
   -2.270564436913D-06 1.321923569776D-03 8.318573236465D-06 5.153554571152D+03
    3.528000000000D+05-5.029141902924D-08-1.299186491372D+00-3.725290298462D-09
    9.720897238960D-01 2.229375000000D+02-8.294035628447D-01-7.903186549640D-09
    4.928776831115D-11 1.000000000000D+00 1.833000000000D+03 0.000000000000D+00
    2.000000000000D+00 0.000000000000D+00-9.778887033463D-09 6.100000000000D+01
    3.528000000000D+05 0.000000000000D+00
31 15 02 26 02 00  0.0 3.224536776543D-04-9.094947017729D-13 0.000000000000D+00
    1.500000000000D+01 4.400000000000D+01 4.397683106561D-09-1.391334428446D+00
    2.086162567139D-06 8.268284494989D-03 5.558133125305D-06 5.153736656189D+03
    3.528000000000D+05-4.842877388000D-08 2.868504270271D+00-1.098960638046D-07
    9.762021592412D-01 2.842500000000D+02-5.431840063656D-01-8.174983356923D-09
    1.439345725940D-10 1.000000000000D+00 1.833000000000D+03 0.000000000000D+00
    2.000000000000D+00 0.000000000000D+00-1.350417733192D-08 1.500000000000D+01
    3.528000000000D+05 0.000000000000D+00
19 15 02 26 02 00  0.0-5.019214004278D-04-1.364242052659D-12 0.000000000000D+00
    2.500000000000D+01-3.865625000000D+01 4.372325168589D-09 6.859227915061D-01
   -1.778826117516D-06 1.100170495920D-02 8.868053555489D-06 5.153703485489D+03
    3.528000000000D+05-4.842877388000D-08-1.258535526508D+00 1.862645149231D-07
    9.683622803130D-01 2.097812500000D+02 5.195881661784D-01-8.103194559794D-09
    1.535778275386D-11 1.000000000000D+00 1.833000000000D+03 0.000000000000D+00
    2.000000000000D+00 0.000000000000D+00-1.490116119385D-08 2.500000000000D+01
    3.528000000000D+05 0.000000000000D+00
16 15 02 26 01 59 44.0-1.530656591058D-04 3.410605131648D-12 0.000000000000D+00
    5.000000000000D+00-4.109375000000D+01 4.036953882292D-09 2.408805511093D+00
   -2.104789018631D-06 8.124747429974D-03 6.400048732758D-06 5.153755605698D+03
    3.527840000000D+05-2.458691596985D-07-2.336650415212D+00 3.911554813385D-08
    9.899059024457D-01 2.736875000000D+02 2.432337846006D-01-7.864970896776D-09
   -8.750364322019D-11 1.000000000000D+00 1.833000000000D+03 0.000000000000D+00
    2.000000000000D+00 0.000000000000D+00-1.024454832077D-08 5.000000000000D+00
    3.527840000000D+05 0.000000000000D+00
 4 15 02 26 02 00  0.0-7.903669029474D-06-7.958078640513D-13 0.000000000000D+00
    1.420000000000D+02-1.131250000000D+01 5.223788956954D-09-8.924390293020D-01
   -5.289912223816D-07 1.105519116390D-02 7.323920726776D-06 5.153721881866D+03
    3.528000000000D+05 4.842877388000D-08-3.191381142292D-01 2.663582563400D-07
    9.398283074842D-01 2.265000000000D+02 1.051370206589D+00-8.501068293754D-09
    1.046472145050D-10 1.000000000000D+00 1.833000000000D+03 0.000000000000D+00
    2.800000000000D+00 0.000000000000D+00-6.519258022308D-09 1.420000000000D+02
    3.528000000000D+05 0.000000000000D+00
 7 15 02 26 02 00  0.0 4.432960413396D-04 3.069544618484D-12 0.000000000000D+00
    7.500000000000D+01 5.862500000000D+01 4.443756473904D-09-1.269953540674D+00
    2.974644303322D-06 8.042876143008D-03 5.125999450684D-06 5.153733921051D+03
    3.528000000000D+05 1.173466444016D-07 2.861155895245D+00-1.080334186554D-07
    9.712991790581D-01 2.834687500000D+02-2.754630459267D+00-8.167482690169D-09
    1.789360187798D-10 1.000000000000D+00 1.833000000000D+03 0.000000000000D+00
    2.000000000000D+00 0.000000000000D+00-1.117587089539D-08 7.500000000000D+01
    3.528000000000D+05 0.000000000000D+00
 4 15 02 26 01 59 44.0-7.901340723038D-06-7.958078640513D-13 0.000000000000D+00
    0.000000000000D+00-1.131250000000D+01 5.223431909229D-09-8.947714927213D-01
   -5.289912223816D-07 1.105518336408D-02 7.323920726776D-06 5.153721870422D+03
    3.527840000000D+05 4.842877388000D-08-3.191379913440D-01 2.663582563400D-07
    9.398283060213D-01 2.265000000000D+02 1.051369009922D+00-8.501068293754D-09
    1.046472145050D-10 1.000000000000D+00 1.833000000000D+03 0.000000000000D+00
    2.000000000000D+00 0.000000000000D+00-6.519258022308D-09 0.000000000000D+00
    3.527840000000D+05 0.000000000000D+00
21 15 02 26 04 00  0.0-4.206285811961D-04-3.979039320257D-12 0.000000000000D+00
    6.000000000000D+01-1.937500000000D+00 5.259861879381D-09-1.229675966631D+00
    1.620501279831D-07 2.228295616806D-02 7.268041372299D-06 5.153604162216D+03
    3.600000000000D+05 2.067536115646D-07-3.192931016222D-01 5.234032869339D-07
    9.338227815357D-01 2.227187500000D+02-1.942265610084D+00-8.459281275464D-09
    9.536111483799D-11 1.000000000000D+00 1.833000000000D+03 0.000000000000D+00
    5.700000000000D+00 0.000000000000D+00-1.164153218269D-08 6.000000000000D+01
    3.600000000000D+05 0.000000000000D+00
 4 15 02 26 03 59 44.0-7.906462997198D-06-7.958078640513D-13 0.000000000000D+00
    2.700000000000D+01-8.218750000000D+00 5.259861879381D-09 1.554011881461D-01
   -3.259629011154D-07 1.105560711585D-02 7.295981049538D-06 5.153722757339D+03
    3.599840000000D+05-1.024454832077D-07-3.191997455049D-01 1.490116119385D-07
    9.398288546156D-01 2.273750000000D+02 1.051352857844D+00-8.569642773182D-09
    9.214669305369D-11 1.000000000000D+00 1.833000000000D+03 0.000000000000D+00
    2.000000000000D+00 0.000000000000D+00-6.519258022308D-09 2.700000000000D+01
    3.599840000000D+05 0.000000000000D+00
 7 15 02 26 04 00  0.0 4.433183930814D-04 3.069544618484D-12 0.000000000000D+00
    8.500000000000D+01 5.253125000000D+01 4.427684441310D-09-2.197265694536D-01
    2.851709723473D-06 8.043273002841D-03 5.193054676056D-06 5.153735345840D+03
    3.600000000000D+05 1.154839992523D-07 2.861096957201D+00 4.284083843231D-08
    9.712997554478D-01 2.852500000000D+02-2.754714856474D+00-8.285701902366D-09
    1.253623593822D-10 1.000000000000D+00 1.833000000000D+03 0.000000000000D+00
    2.000000000000D+00 0.000000000000D+00-1.117587089539D-08 8.500000000000D+01
    3.600000000000D+05 0.000000000000D+00
